{"type": "FeatureCollection", "features": [ {"type": "Feature", "properties": {"norad_id": 43262, "name": "GAOFEN-1 04", "group": "resource", "lat": 63.51816494650978, "lon": -117.81038217997292, "alt_km": 633.9465162552242, "timestamp": "2025-12-13T18:50:04.086068+00:00", "meta": {"OBJECT_NAME": "GAOFEN-1 04", "OBJECT_ID": "2018-031D", "EPOCH": "2025-12-13T06:55:44.011776", "MEAN_MOTION": 14.76454179, "ECCENTRICITY": 0.00010379, "INCLINATION": 98.0805, "RA_OF_ASC_NODE": 45.1242, "ARG_OF_PERICENTER": 59.3381, "MEAN_ANOMALY": 300.793, "EPHEMERIS_TYPE": 0, "CLASSIFICATION_TYPE": "U", "NORAD_CAT_ID": 43262, "ELEMENT_SET_NO": 999, "REV_AT_EPOCH": 41525, "BSTAR": 0.00030046954, "MEAN_MOTION_DOT": 2.039e-05, "MEAN_MOTION_DDOT": 0}, "tle": {"line1": "1 43262U 18031D   25347.28870384  .00002039  00000+0  30047-3 0  9991", "line2": "2 43262  98.0805  45.1242 0001037  59.3381 300.7930 14.76454179415254"}}, "geometry": {"type": "Point", "coordinates": [-117.81038217997292, 63.51816494650978]}}, {"type": "Feature", "properties": {"norad_id": 43437, "name": "SENTINEL-3B", "group": "resource", "lat": 79.96594724659316, "lon": -67.95663247861049, "alt_km": 794.0943643748933, "timestamp": "2025-12-13T18:50:04.086079+00:00", "meta": {"OBJECT_NAME": "SENTINEL-3B", "OBJECT_ID": "2018-039A", "EPOCH": "2025-12-13T03:14:32.195040", "MEAN_MOTION": 14.26734354, "ECCENTRICITY": 0.00016258, "INCLINATION": 98.6266, "RA_OF_ASC_NODE": 52.3144, "ARG_OF_PERICENTER": 102.2573, "MEAN_ANOMALY": 257.879, "EPHEMERIS_TYPE": 0, "CLASSIFICATION_TYPE": "U", "NORAD_CAT_ID": 43437, "ELEMENT_SET_NO": 999, "REV_AT_EPOCH": 39759, "BSTAR": 0.00011115744, "MEAN_MOTION_DOT": 2.25e-06, "MEAN_MOTION_DDOT": 0}, "tle": {"line1": "1 43437U 18039A   25347.13509485  .00000225  00000+0  11116-3 0  9999", "line2": "2 43437  98.6266  52.3144 0001625 102.2573 257.8790 14.26734354397593"}}, "geometry": {"type": "Point", "coordinates": [-67.95663247861049, 79.96594724659316]}}, {"type": "Feature", "properties": {"norad_id": 43461, "name": "GAOFEN-5 01", "group": "resource", "lat": -30.457166237292252, "lon": 125.76566158706154, "alt_km": 698.2112629409994, "timestamp": "2025-12-13T18:50:04.086089+00:00", "meta": {"OBJECT_NAME": "GAOFEN-5 01", "OBJECT_ID": "2018-043A", "EPOCH": "2025-12-12T22:08:25.329696", "MEAN_MOTION": 14.60410348, "ECCENTRICITY": 9.449e-05, "INCLINATION": 98.4326, "RA_OF_ASC_NODE": 309.8929, "ARG_OF_PERICENTER": 339.5277, "MEAN_ANOMALY": 20.5885, "EPHEMERIS_TYPE": 0, "CLASSIFICATION_TYPE": "U", "NORAD_CAT_ID": 43461, "ELEMENT_SET_NO": 999, "REV_AT_EPOCH": 40450, "BSTAR": 0.00016796304, "MEAN_MOTION_DOT": 7.64e-06, "MEAN_MOTION_DDOT": 0}, "tle": {"line1": "1 43461U 18043A   25346.92251539  .00000764  00000+0  16796-3 0  9998", "line2": "2 43461  98.4326 309.8929 0000944 339.5277  20.5885 14.60410348404507"}}, "geometry": {"type": "Point", "coordinates": [125.76566158706154, -30.457166237292252]}}, {"type": "Feature", "properties": {"norad_id": 43484, "name": "GAOFEN-6", "group": "resource", "lat": -81.55382290090603, "lon": 164.57939635156308, "alt_km": 655.8424165227207, "timestamp": "2025-12-13T18:50:04.086100+00:00", "meta": {"OBJECT_NAME": "GAOFEN-6", "OBJECT_ID": "2018-048A", "EPOCH": "2025-12-13T07:52:18.780096", "MEAN_MOTION": 14.76568116, "ECCENTRICITY": 0.00131864, "INCLINATION": 97.8028, "RA_OF_ASC_NODE": 51.5747, "ARG_OF_PERICENTER": 62.1394, "MEAN_ANOMALY": 298.115, "EPHEMERIS_TYPE": 0, "CLASSIFICATION_TYPE": "U", "NORAD_CAT_ID": 43484, "ELEMENT_SET_NO": 999, "REV_AT_EPOCH": 40596, "BSTAR": 0.00019637265, "MEAN_MOTION_DOT": 1.322e-05, "MEAN_MOTION_DDOT": 0}, "tle": {"line1": "1 43484U 18048A   25347.32799514  .00001322  00000+0  19637-3 0  9991", "line2": "2 43484  97.8028  51.5747 0013186  62.1394 298.1150 14.76568116405967"}}, "geometry": {"type": "Point", "coordinates": [164.57939635156308, -81.55382290090603]}}, {"type": "Feature", "properties": {"norad_id": 43585, "name": "GAOFEN-11 01", "group": "resource", "lat": -13.6390341672908, "lon": 52.45687865919377, "alt_km": 421.28770854607683, "timestamp": "2025-12-13T18:50:04.086110+00:00", "meta": {"OBJECT_NAME": "GAOFEN-11 01", "OBJECT_ID": "2018-063A", "EPOCH": "2025-12-13T08:02:33.358848", "MEAN_MOTION": 15.49248696, "ECCENTRICITY": 0.00042636, "INCLINATION": 97.1558, "RA_OF_ASC_NODE": 50.264, "ARG_OF_PERICENTER": 310.1542, "MEAN_ANOMALY": 49.9336, "EPHEMERIS_TYPE": 0, "CLASSIFICATION_TYPE": "U", "NORAD_CAT_ID": 43585, "ELEMENT_SET_NO": 999, "REV_AT_EPOCH": 41151, "BSTAR": 0.00046892697, "MEAN_MOTION_DOT": 0.00025558, "MEAN_MOTION_DDOT": 0}, "tle": {"line1": "1 43585U 18063A   25347.33510832  .00025558  00000+0  46893-3 0  9996", "line2": "2 43585  97.1558  50.2640 0004263 310.1542  49.9336 15.49248696411510"}}, "geometry": {"type": "Point", "coordinates": [52.45687865919377, -13.6390341672908]}}, {"type": "Feature", "properties": {"norad_id": 43613, "name": "ICESAT-2", "group": "resource", "lat": 3.462088402142197, "lon": -119.102036136673, "alt_km": 484.86089314212404, "timestamp": "2025-12-13T18:50:04.086121+00:00", "meta": {"OBJECT_NAME": "ICESAT-2", "OBJECT_ID": "2018-070A", "EPOCH": "2025-12-13T06:14:50.425440", "MEAN_MOTION": 15.2825875, "ECCENTRICITY": 0.00024034, "INCLINATION": 92.0046, "RA_OF_ASC_NODE": 240.8779, "ARG_OF_PERICENTER": 140.4995, "MEAN_ANOMALY": 219.643, "EPHEMERIS_TYPE": 0, "CLASSIFICATION_TYPE": "U", "NORAD_CAT_ID": 43613, "ELEMENT_SET_NO": 999, "REV_AT_EPOCH": 40406, "BSTAR": 0.00069984959, "MEAN_MOTION_DOT": 0.00019282, "MEAN_MOTION_DDOT": 0}, "tle": {"line1": "1 43613U 18070A   25347.26030585  .00019282  00000+0  69985-3 0  9994", "line2": "2 43613  92.0046 240.8779 0002403 140.4995 219.6430 15.28258750404060"}}, "geometry": {"type": "Point", "coordinates": [-119.102036136673, 3.462088402142197]}}, {"type": "Feature", "properties": {"norad_id": 43719, "name": "HYSIS", "group": "resource", "lat": -49.45533467718309, "lon": 60.23065798462436, "alt_km": 640.7046278687858, "timestamp": "2025-12-13T18:50:04.086134+00:00", "meta": {"OBJECT_NAME": "HYSIS", "OBJECT_ID": "2018-096A", "EPOCH": "2025-12-13T07:41:31.676928", "MEAN_MOTION": 14.78649347, "ECCENTRICITY": 0.00012913, "INCLINATION": 98.0093, "RA_OF_ASC_NODE": 50.2949, "ARG_OF_PERICENTER": 56.0946, "MEAN_ANOMALY": 304.0387, "EPHEMERIS_TYPE": 0, "CLASSIFICATION_TYPE": "U", "NORAD_CAT_ID": 43719, "ELEMENT_SET_NO": 999, "REV_AT_EPOCH": 37995, "BSTAR": 0.00035699059, "MEAN_MOTION_DOT": 2.564e-05, "MEAN_MOTION_DDOT": 0}, "tle": {"line1": "1 43719U 18096A   25347.32050552  .00002564  00000+0  35699-3 0  9992", "line2": "2 43719  98.0093  50.2949 0001291  56.0946 304.0387 14.78649347379958"}}, "geometry": {"type": "Point", "coordinates": [60.23065798462436, -49.45533467718309]}}, {"type": "Feature", "properties": {"norad_id": 43783, "name": "KAZSTSAT", "group": "resource", "lat": -80.34511170115137, "lon": 152.58918965839254, "alt_km": 574.3530034489077, "timestamp": "2025-12-13T18:50:04.086144+00:00", "meta": {"OBJECT_NAME": "KAZSTSAT", "OBJECT_ID": "2018-099AB", "EPOCH": "2025-12-13T01:38:37.746816", "MEAN_MOTION": 14.99354527, "ECCENTRICITY": 0.00059071, "INCLINATION": 97.456, "RA_OF_ASC_NODE": 22.2397, "ARG_OF_PERICENTER": 328.8616, "MEAN_ANOMALY": 31.2257, "EPHEMERIS_TYPE": 0, "CLASSIFICATION_TYPE": "U", "NORAD_CAT_ID": 43783, "ELEMENT_SET_NO": 999, "REV_AT_EPOCH": 38341, "BSTAR": 0.00017301376, "MEAN_MOTION_DOT": 2.06e-05, "MEAN_MOTION_DDOT": 0}, "tle": {"line1": "1 43783U 18099AB  25347.06849244  .00002060  00000+0  17301-3 0  9992", "line2": "2 43783  97.4560  22.2397 0005907 328.8616  31.2257 14.99354527383416"}}, "geometry": {"type": "Point", "coordinates": [152.58918965839254, -80.34511170115137]}}, {"type": "Feature", "properties": {"norad_id": 43831, "name": "SAUDISAT 5A", "group": "resource", "lat": 54.67112966452108, "lon": 37.48400657527547, "alt_km": 475.92098841081497, "timestamp": "2025-12-13T18:50:04.086155+00:00", "meta": {"OBJECT_NAME": "SAUDISAT 5A", "OBJECT_ID": "2018-102A", "EPOCH": "2025-12-13T07:34:28.284960", "MEAN_MOTION": 15.25670686, "ECCENTRICITY": 0.00117368, "INCLINATION": 97.3355, "RA_OF_ASC_NODE": 47.4955, "ARG_OF_PERICENTER": 74.5889, "MEAN_ANOMALY": 285.6645, "EPHEMERIS_TYPE": 0, "CLASSIFICATION_TYPE": "U", "NORAD_CAT_ID": 43831, "ELEMENT_SET_NO": 999, "REV_AT_EPOCH": 38731, "BSTAR": 0.00040914902, "MEAN_MOTION_DOT": 0.0001037, "MEAN_MOTION_DDOT": 0}, "tle": {"line1": "1 43831U 18102A   25347.31560515  .00010370  00000+0  40915-3 0  9990", "line2": "2 43831  97.3355  47.4955 0011736  74.5889 285.6645 15.25670686387310"}}, "geometry": {"type": "Point", "coordinates": [37.48400657527547, 54.67112966452108]}}, {"type": "Feature", "properties": {"norad_id": 43833, "name": "SAUDISAT 5B", "group": "resource", "lat": 69.55486901486213, "lon": -109.0603276751048, "alt_km": 473.86631855831547, "timestamp": "2025-12-13T18:50:04.086166+00:00", "meta": {"OBJECT_NAME": "SAUDISAT 5B", "OBJECT_ID": "2018-102C", "EPOCH": "2025-12-13T07:20:34.791936", "MEAN_MOTION": 15.26022426, "ECCENTRICITY": 0.00124613, "INCLINATION": 97.345, "RA_OF_ASC_NODE": 50.2255, "ARG_OF_PERICENTER": 76.8356, "MEAN_ANOMALY": 283.4272, "EPHEMERIS_TYPE": 0, "CLASSIFICATION_TYPE": "U", "NORAD_CAT_ID": 43833, "ELEMENT_SET_NO": 999, "REV_AT_EPOCH": 38742, "BSTAR": 0.0003744878, "MEAN_MOTION_DOT": 9.588e-05, "MEAN_MOTION_DDOT": 0}, "tle": {"line1": "1 43833U 18102C   25347.30595824  .00009588  00000+0  37449-3 0  9999", "line2": "2 43833  97.3450  50.2255 0012461  76.8356 283.4272 15.26022426387421"}}, "geometry": {"type": "Point", "coordinates": [-109.0603276751048, 69.55486901486213]}}]}